ONEWEB-0235             
1 48771U 21045E   24343.52952622  .00000203  00000+0  50627-3 0  9995
2 48771  87.9071   9.8168 0001467  71.2560 288.8730 13.15549231171326
ONEWEB-0242             
1 48772U 21045F   24343.52319449  .00000177  00000+0  43498-3 0  9998
2 48772  87.9070   9.8051 0001736  85.6442 274.4886 13.15549213171361
ONEWEB-0241             
1 48773U 21045G   24343.81472457 -.00000157  00000+0 -45142-3 0  9998
2 48773  87.9079   9.8105 0001350  94.4474 265.6810 13.15547016172444
ONEWEB-0243             
1 48774U 21045H   24343.77035449 -.00000215  00000+0 -60569-3 0  9995
2 48774  87.9080   9.7797 0001585  75.2498 284.8808 13.15549136172463
ONEWEB-0222             
1 48775U 21045J   24343.52556294  .00000192  00000+0  47493-3 0  9998
2 48775  87.9071   9.8133 0001563  90.5784 269.5525 13.15548324171343
ONEWEB-0244             
1 48776U 21045K   24343.55170912 -.00000013  00000+0 -68553-4 0  9996
2 48776  87.9069   9.7881 0001800  87.4838 272.6499 13.15548641171919
ONEWEB-0247             
1 48777U 21045L   24343.54853917  .00000030  00000+0  45662-4 0  9992
2 48777  87.9076   9.8431 0001568  58.2014 301.9269 13.15547753171355
ONEWEB-0245             
1 48778U 21045M   24343.77195354  .00000187  00000+0  46349-3 0  9997
2 48778  87.9070   9.7773 0001510  95.2938 264.8364 13.15548373172488
